NORAD_CAT_ID,OBJECT_NAME,OBJECT_TYPE,EPOCH,MEAN_MOTION,ECCENTRICITY,INCLINATION,RA_OF_ASC_NODE,ARG_OF_PERICENTER,MEAN_ANOMALY,BSTAR,MEAN_MOTION_DOT,MEAN_MOTION_DDOT,TLE_LINE0,TLE_LINE1,TLE_LINE2,SEMIMAJOR_AXIS,PERIOD,APOGEE,PERIGEE,DECAYED
52501.0,STARLINK-3907,PAYLOAD,2024-05-31 22:57:41,15.08831469,0.0001007,53.2174,72.2124,109.952,250.158,1.1204e-05,-1.09e-06,0.0,0 STARLINK-3907,1 52501U 22049BC  24152.95673421 -.00000109  00000-0  11204-4 0  9994,2 52501  53.2174  72.2124 0001007 109.9520 250.1580 15.08831469114764,6917.906,95.438,540.468,539.075,0.0
52501.0,STARLINK-3907,PAYLOAD,2024-06-01 11:40:45,15.08850441,0.0001198,53.2175,69.8354,105.3587,254.7538,0.00013198,1.814e-05,0.0,0 STARLINK-3907,1 52501U 22049BC  24153.48663920  .00001814  00000-0  13198-3 0  9992,2 52501  53.2175  69.8354 0001198 105.3587 254.7538 15.08850441115008,6917.848,95.437,540.542,538.885,0.0
52501.0,STARLINK-3907,PAYLOAD,2024-06-02 03:34:37,15.08834825,0.0001373,53.217,66.8619,125.0473,235.0648,0.00023291,3.42e-05,0.0,0 STARLINK-3907,1 52501U 22049BC  24154.14904671  .00003420  00000-0  23291-3 0  9997,2 52501  53.2170  66.8619 0001373 125.0473 235.0648 15.08834825115105,6917.896,95.438,540.711,538.811,0.0
52501.0,STARLINK-3907,PAYLOAD,2024-06-02 11:31:32,15.08843573,0.0001282,53.217,65.3744,124.1167,235.9947,0.00027338,4.066e-05,0.0,0 STARLINK-3907,1 52501U 22049BC  24154.48024066  .00004066  00000-0  27338-3 0  9998,2 52501  53.2170  65.3744 0001282 124.1167 235.9947 15.08843573115153,6917.869,95.437,540.621,538.848,0.0
52501.0,STARLINK-3907,PAYLOAD,2024-06-03 03:25:24,15.08847645,0.0001794,53.2185,62.4016,133.5465,226.5676,4.0395e-05,3.55e-06,0.0,0 STARLINK-3907,1 52501U 22049BC  24155.14264666  .00000355  00000-0  40395-4 0  9990,2 52501  53.2185  62.4016 0001794 133.5465 226.5676 15.08847645115252,6917.857,95.437,540.963,538.481,0.0
52501.0,STARLINK-3907,PAYLOAD,2024-06-03 11:22:19,15.08851955,0.0001444,53.2202,60.9139,121.1007,239.0127,4.6347e-05,4.5e-06,0.0,0 STARLINK-3907,1 52501U 22049BC  24155.47384227  .00000450  00000-0  46347-4 0  9991,2 52501  53.2202  60.9139 0001444 121.1007 239.0127 15.08851955115145,6917.844,95.437,540.708,538.71,0.0
52501.0,STARLINK-3907,PAYLOAD,2024-06-04 03:16:11,15.08848728,0.0001491,53.2182,57.9406,119.8768,240.2372,7.785e-05,9.52e-06,0.0,0 STARLINK-3907,1 52501U 22049BC  24156.13624159  .00000952  00000-0  77850-4 0  9996,2 52501  53.2182  57.9406 0001491 119.8768 240.2372 15.08848728115246,6917.854,95.437,540.75,538.687,0.0
52501.0,STARLINK-3907,PAYLOAD,2024-06-04 23:56:12,15.08844027,0.0001339,53.2136,54.076,104.6153,255.4987,0.00011411,1.529e-05,0.0,0 STARLINK-3907,1 52501U 22049BC  24156.99736154  .00001529  00000-0  11411-3 0  9990,2 52501  53.2136  54.0760 0001339 104.6153 255.4987 15.08844027115537,6917.868,95.437,540.659,538.807,0.0
52501.0,STARLINK-3907,PAYLOAD,2024-06-05 17:25:27,15.08836444,2.86e-05,53.2232,50.8057,96.9505,263.152,6.406e-05,7.32e-06,0.0,0 STARLINK-3907,1 52501U 22049BC  24157.72600708  .00000732  00000-0  64060-4 0  9991,2 52501  53.2232  50.8057 0000286  96.9505 263.1520 15.08836444115646,6917.891,95.438,539.954,539.558,0.0
52501.0,STARLINK-3907,PAYLOAD,2024-06-06 09:19:18,15.08842961,0.000175,53.2228,47.8327,97.7876,262.3315,-8.4202e-05,-1.628e-05,0.0,0 STARLINK-3907,1 52501U 22049BC  24158.38840746 -.00001628  00000-0 -84202-4 0  9999,2 52501  53.2228  47.8327 0001750  97.7876 262.3315 15.08842961115581,6917.871,95.437,540.947,538.526,0.0
52501.0,STARLINK-3907,PAYLOAD,2024-06-07 01:13:10,15.08835071,9.64e-05,53.2173,44.8563,86.6357,273.4745,9.1616e-05,1.17e-05,0.0,0 STARLINK-3907,1 52501U 22049BC  24159.05081124  .00001170  00000-0  91616-4 0  9998,2 52501  53.2173  44.8563 0000964  86.6357 273.4745 15.08835071115849,6917.895,95.438,540.427,539.094,0.0
52501.0,STARLINK-3907,PAYLOAD,2024-06-07 09:10:05,15.0884159,8.54e-05,53.2185,43.3699,80.5374,279.5715,0.00013758,1.903e-05,0.0,0 STARLINK-3907,1 52501U 22049BC  24159.38200669  .00001903  00000-0  13758-3 0  9995,2 52501  53.2185  43.3699 0000854  80.5374 279.5715 15.08841590115731,6917.876,95.437,540.331,539.15,0.0
52501.0,STARLINK-3907,PAYLOAD,2024-06-07 21:53:10,15.08843845,0.0001473,53.2206,40.9945,92.0233,268.0928,0.00021353,3.112e-05,0.0,0 STARLINK-3907,1 52501U 22049BC  24159.91192662  .00003112  00000-0  21353-3 0  9991,2 52501  53.2206  40.9945 0001473  92.0233 268.0928 15.08843845115815,6917.869,95.437,540.753,538.715,0.0
52501.0,STARLINK-3907,PAYLOAD,2024-06-08 01:03:56,15.08860089,0.0001684,53.219,40.3962,90.6853,269.4332,0.00041992,6.405e-05,0.0,0 STARLINK-3907,1 52501U 22049BC  24160.04439976  .00006405  00000-0  41992-3 0  9998,2 52501  53.2190  40.3962 0001684  90.6853 269.4332 15.08860089115998,6917.819,95.436,540.849,538.519,0.0
52501.0,STARLINK-3907,PAYLOAD,2024-06-08 09:00:51,15.08871322,0.0002327,53.2178,38.9091,67.1243,292.9995,0.00039868,6.068e-05,0.0,0 STARLINK-3907,1 52501U 22049BC  24160.37559228  .00006068  00000-0  39868-3 0  9991,2 52501  53.2178  38.9091 0002327  67.1243 292.9995 15.08871322115883,6917.785,95.436,541.259,538.04,0.0
52501.0,STARLINK-3907,PAYLOAD,2024-06-08 21:43:58,15.08820671,0.0001157,53.2174,36.5317,76.5936,283.5185,-0.00028344,-4.793e-05,0.0,0 STARLINK-3907,1 52501U 22049BC  24160.90553595 -.00004793  00000-0 -28344-3 0  9993,2 52501  53.2174  36.5317 0001157  76.5936 283.5185 15.08820671115964,6917.939,95.439,540.605,539.004,0.0
52501.0,STARLINK-3907,PAYLOAD,2024-06-09 00:54:44,15.0882262,0.0001192,53.2188,35.9368,76.3738,283.7387,-0.00024643,-4.206e-05,0.0,0 STARLINK-3907,1 52501U 22049BC  24161.03801609 -.00004206  00000-0 -24643-3 0  9997,2 52501  53.2188  35.9368 0001192  76.3738 283.7387 15.08822620116148,6917.934,95.439,540.623,538.974,0.0
52501.0,STARLINK-3907,PAYLOAD,2024-06-09 21:34:45,15.0883175,0.0001421,53.218,32.0726,77.3021,282.813,-7.3658e-05,-1.46e-05,0.0,0 STARLINK-3907,1 52501U 22049BC  24161.89913918 -.00001460  00000-0 -73658-4 0  9998,2 52501  53.2180  32.0726 0001421  77.3021 282.8130 15.08831750116271,6917.906,95.438,540.754,538.788,0.0
52501.0,STARLINK-3907,PAYLOAD,2024-06-10 08:42:27,15.08846023,0.0001148,53.218,29.9917,87.286,272.8264,7.4906e-05,9.05e-06,0.0,0 STARLINK-3907,1 52501U 22049BC  24162.36281453  .00000905  00000-0  74906-4 0  9991,2 52501  53.2180  29.9917 0001148  87.2860 272.8264 15.08846023116349,6917.862,95.437,540.521,538.933,0.0
52501.0,STARLINK-3907,PAYLOAD,2024-06-10 21:25:33,15.08840183,9.86e-05,53.2176,27.6121,85.5981,274.5123,0.0005064,7.781e-05,0.0,0 STARLINK-3907,1 52501U 22049BC  24162.89274339  .00007781  00000-0  50640-3 0  9991,2 52501  53.2176  27.6121 0000986  85.5981 274.5123 15.08840183116423,6917.88,95.438,540.427,539.063,0.0
52501.0,STARLINK-3907,PAYLOAD,2024-06-11 08:33:14,15.08855413,0.000128,53.2181,25.5269,101.5863,258.5273,0.00057107,8.816e-05,0.0,0 STARLINK-3907,1 52501U 22049BC  24163.35641647  .00008816  00000-0  57107-3 0  9998,2 52501  53.2181  25.5269 0001280 101.5863 258.5273 15.08855413116335,6917.833,95.437,540.584,538.813,0.0
52501.0,STARLINK-3907,PAYLOAD,2024-06-12 00:27:05,15.08851457,0.0001214,53.218,22.554,85.0365,275.0765,0.00024019,3.538e-05,0.0,0 STARLINK-3907,1 52501U 22049BC  24164.01881385  .00003538  00000-0  24019-3 0  9999,2 52501  53.2180  22.5540 0001214  85.0365 275.0765 15.08851457116595,6917.845,95.437,540.55,538.871,0.0
52501.0,STARLINK-3907,PAYLOAD,2024-06-12 21:07:06,15.0883657,0.0001244,53.218,18.6851,90.1317,269.9818,-9.8657e-05,-1.857e-05,0.0,0 STARLINK-3907,1 52501U 22049BC  24164.87993903 -.00001857  00000-0 -98657-4 0  9997,2 52501  53.2180  18.6851 0001244  90.1317 269.9818 15.08836570116728,6917.891,95.438,540.616,538.895,0.0
52501.0,STARLINK-3907,PAYLOAD,2024-06-13 00:17:53,15.08838039,0.0001132,53.2177,18.0943,82.5512,277.5609,-0.00010156,-1.904e-05,0.0,0 STARLINK-3907,1 52501U 22049BC  24165.01242002 -.00001904  00000-0 -10156-3 0  9991,2 52501  53.2177  18.0943 0001132  82.5512 277.5609 15.08838039116587,6917.886,95.438,540.534,538.968,0.0
52501.0,STARLINK-3907,PAYLOAD,2024-06-13 20:57:53,15.0884168,0.0001163,53.2178,14.23,73.116,286.996,6.2899e-05,7.13e-06,0.0,0 STARLINK-3907,1 52501U 22049BC  24165.87353951  .00000713  00000-0  62899-4 0  9998,2 52501  53.2178  14.2300 0001163  73.1160 286.9960 15.08841680116717,6917.875,95.437,540.545,538.936,0.0
52501.0,STARLINK-3907,PAYLOAD,2024-06-14 06:30:12,15.08850279,0.0001142,53.2182,12.4461,86.4295,273.6827,0.0001931,2.788e-05,0.0,0 STARLINK-3907,1 52501U 22049BC  24166.27097373  .00002788  00000-0  19310-3 0  9999,2 52501  53.2182  12.4461 0001142  86.4295 273.6827 15.08850279116778,6917.849,95.437,540.504,538.924,0.0
52501.0,STARLINK-3907,PAYLOAD,2024-06-14 22:24:04,15.08837061,0.0001197,53.2186,9.4737,86.9756,273.1373,0.00011456,1.536e-05,0.0,0 STARLINK-3907,1 52501U 22049BC  24166.93338308  .00001536  00000-0  11456-3 0  9991,2 52501  53.2186   9.4737 0001197  86.9756 273.1373 15.08837061116877,6917.889,95.438,540.582,538.926,0.0
52501.0,STARLINK-3907,PAYLOAD,2024-06-15 06:20:59,15.0885045,0.0001201,53.2188,7.9874,89.8166,270.2964,0.00027925,4.16e-05,0.0,0 STARLINK-3907,1 52501U 22049BC  24167.26457667  .00004160  00000-0  27925-3 0  9992,2 52501  53.2188   7.9874 0001201  89.8166 270.2964 15.08850450116924,6917.848,95.437,540.544,538.883,0.0
52501.0,STARLINK-3907,PAYLOAD,2024-06-15 22:14:51,15.08842976,0.0001413,53.2191,5.0135,90.6337,269.4817,0.00010818,1.434e-05,0.0,0 STARLINK-3907,1 52501U 22049BC  24167.92698066  .00001434  00000-0  10818-3 0  9999,2 52501  53.2191   5.0135 0001413  90.6337 269.4817 15.08842976117025,6917.871,95.437,540.714,538.759,0.0
52501.0,STARLINK-3907,PAYLOAD,2024-06-16 06:11:46,15.08849945,0.0001367,53.2187,3.5262,88.5699,271.5449,0.00026413,3.919e-05,0.0,0 STARLINK-3907,1 52501U 22049BC  24168.25817821  .00003919  00000-0  26413-3 0  9996,2 52501  53.2187   3.5262 0001367  88.5699 271.5449 15.08849945117072,6917.85,95.437,540.661,538.769,0.0
